NORAD_CAT_ID,OBJECT_NAME,OBJECT_TYPE,EPOCH,MEAN_MOTION,ECCENTRICITY,INCLINATION,RA_OF_ASC_NODE,ARG_OF_PERICENTER,MEAN_ANOMALY,BSTAR,MEAN_MOTION_DOT,MEAN_MOTION_DDOT,TLE_LINE0,TLE_LINE1,TLE_LINE2,SEMIMAJOR_AXIS,PERIOD,APOGEE,PERIGEE,DECAYED
55782.0,STARLINK-5826,PAYLOAD,2024-07-15 14:16:03,14.9833133,0.0003039,70.0005,282.7354,269.7525,90.3286,0.00015151,1.715e-05,0.0,0 STARLINK-5826,1 55782U 23028AT  24197.59448897  .00001715  00000-0  15151-3 0  9999,2 55782  70.0005 282.7354 0003039 269.7525  90.3286 14.98331330 76830,6950.189,96.107,574.166,569.942,0.0
55782.0,STARLINK-5826,PAYLOAD,2024-07-15 15:52:11,14.98326631,0.0002968,70.0005,282.5671,269.1194,90.9625,0.00027646,3.207e-05,0.0,0 STARLINK-5826,1 55782U 23028AT  24197.66124963  .00003207  00000-0  27646-3 0  9992,2 55782  70.0005 282.5671 0002968 269.1194  90.9625 14.98326631 76848,6950.203,96.107,574.131,570.005,0.0
55782.0,STARLINK-5826,PAYLOAD,2024-07-16 12:41:56,14.9833226,0.0002898,70.0006,280.379,270.3624,89.7203,3.4375e-05,3.17e-06,0.0,0 STARLINK-5826,1 55782U 23028AT  24198.52912901  .00000317  00000-0  34375-4 0  9992,2 55782  70.0006 280.3790 0002898 270.3624  89.7203 14.98332260 76978,6950.186,96.107,574.065,570.037,0.0
55782.0,STARLINK-5826,PAYLOAD,2024-07-16 14:18:03,14.98395552,0.000319,70.0006,280.2106,268.5905,91.4889,-0.00097881,-0.00011772,0.0,0 STARLINK-5826,1 55782U 23028AT  24198.59586896 -.00011772  00000-0 -97881-3 0  9998,2 55782  70.0006 280.2106 0003190 268.5905  91.4889 14.98395552 76989,6949.99,96.103,574.072,569.638,0.0
55782.0,STARLINK-5826,PAYLOAD,2024-07-16 15:54:10,14.98400286,0.0003103,70.0006,280.0423,265.03,95.0505,-0.0010284,-0.00012365,0.0,0 STARLINK-5826,1 55782U 23028AT  24198.66262430 -.00012365  00000-0 -10284-2 0  9991,2 55782  70.0006 280.0423 0003103 265.0300  95.0505 14.98400286 76991,6949.976,96.102,573.997,569.684,0.0
55782.0,STARLINK-5826,PAYLOAD,2024-07-17 11:07:50,14.98328512,0.0002752,70.0012,278.0247,269.4321,90.6523,-8.7763e-05,-1.14e-05,0.0,0 STARLINK-5826,1 55782U 23028AT  24199.46377343 -.00001140  00000-0 -87763-4 0  9997,2 55782  70.0012 278.0247 0002752 269.4321  90.6523 14.98328512 77116,6950.197,96.107,573.975,570.15,0.0
55782.0,STARLINK-5826,PAYLOAD,2024-07-17 14:20:06,14.98327295,0.0002655,70.0012,277.6881,260.2157,99.8702,1.6456e-05,1.03e-06,0.0,0 STARLINK-5826,1 55782U 23028AT  24199.59729284  .00000103  00000-0  16456-4 0  9993,2 55782  70.0012 277.6881 0002655 260.2157  99.8702 14.98327295 77132,6950.201,96.107,573.912,570.221,0.0
55782.0,STARLINK-5826,PAYLOAD,2024-07-17 22:20:45,14.98345051,0.0002652,70.0012,276.8459,265.5285,94.5571,-0.00025459,-3.13e-05,0.0,0 STARLINK-5826,1 55782U 23028AT  24199.93108688 -.00003130  00000-0 -25459-3 0  9997,2 55782  70.0012 276.8459 0002652 265.5285  94.5571 14.98345051 77182,6950.146,96.106,573.855,570.168,0.0
55782.0,STARLINK-5826,PAYLOAD,2024-07-18 12:45:58,14.98333927,0.0002967,69.9999,275.3301,268.1884,91.8936,7.4743e-05,7.99e-06,0.0,0 STARLINK-5826,1 55782U 23028AT  24200.53192734  .00000799  00000-0  74743-4 0  9998,2 55782  69.9999 275.3301 0002967 268.1884  91.8936 14.98333927 77270,6950.181,96.107,574.108,569.984,0.0
55782.0,STARLINK-5826,PAYLOAD,2024-07-18 14:22:06,14.98334584,0.0002842,70.0003,275.1621,266.9888,93.0946,8.7354e-05,9.5e-06,0.0,0 STARLINK-5826,1 55782U 23028AT  24200.59868658  .00000950  00000-0  87354-4 0  9990,2 55782  70.0003 275.1621 0002842 266.9888  93.0946 14.98334584 77280,6950.179,96.107,574.019,570.068,0.0
55782.0,STARLINK-5826,PAYLOAD,2024-07-19 12:48:00,14.98321649,0.0002934,70.0,272.8053,269.0746,91.0077,6.593e-05,6.94e-06,0.0,0 STARLINK-5826,1 55782U 23028AT  24201.53333604  .00000694  00000-0  65930-4 0  9994,2 55782  70.0000 272.8053 0002934 269.0746  91.0077 14.98321649 77426,6950.219,96.108,574.123,570.045,0.0
55782.0,STARLINK-5826,PAYLOAD,2024-07-19 14:24:08,14.98326821,0.0002978,69.9998,272.6379,269.3056,90.7762,4.0502e-05,3.9e-06,0.0,0 STARLINK-5826,1 55782U 23028AT  24201.60009339  .00000390  00000-0  40502-4 0  9998,2 55782  69.9998 272.6379 0002978 269.3056  90.7762 14.98326821 77438,6950.203,96.107,574.137,569.998,0.0
55782.0,STARLINK-5826,PAYLOAD,2024-07-19 22:24:48,14.98326077,0.0003152,69.9993,271.7948,266.9345,93.1453,4.7048e-05,4.68e-06,0.0,0 STARLINK-5826,1 55782U 23028AT  24201.93389368  .00000468  00000-0  47048-4 0  9995,2 55782  69.9993 271.7948 0003152 266.9345  93.1453 14.98326077 77486,6950.205,96.107,574.261,569.879,0.0
55782.0,STARLINK-5826,PAYLOAD,2024-07-20 12:50:00,14.98335902,0.0003136,69.9994,270.2787,270.4792,89.6007,6.587e-05,6.93e-06,0.0,0 STARLINK-5826,1 55782U 23028AT  24202.53472741  .00000693  00000-0  65870-4 0  9993,2 55782  69.9994 270.2787 0003136 270.4792  89.6007 14.98335902 77572,6950.175,96.107,574.219,569.86,0.0
55782.0,STARLINK-5826,PAYLOAD,2024-07-20 14:26:08,14.98327514,0.0002988,69.9994,270.1107,270.3108,89.7709,0.00027665,3.209e-05,0.0,0 STARLINK-5826,1 55782U 23028AT  24202.60148849  .00003209  00000-0  27665-3 0  9995,2 55782  69.9994 270.1107 0002988 270.3108  89.7709 14.98327514 77582,6950.201,96.107,574.142,569.989,0.0
55782.0,STARLINK-5826,PAYLOAD,2024-07-21 04:51:21,14.98328386,0.0003067,69.9996,268.5956,272.1783,87.9025,6.9124e-05,7.32e-06,0.0,0 STARLINK-5826,1 55782U 23028AT  24203.20233147  .00000732  00000-0  69124-4 0  9993,2 55782  69.9996 268.5956 0003067 272.1783  87.9025 14.98328386 77674,6950.198,96.107,574.195,569.931,0.0
55782.0,STARLINK-5826,PAYLOAD,2024-07-21 14:28:09,14.98333574,0.0003061,69.9996,267.5857,272.2282,87.8526,0.00011961,1.335e-05,0.0,0 STARLINK-5826,1 55782U 23028AT  24203.60288736  .00001335  00000-0  11961-3 0  9996,2 55782  69.9996 267.5857 0003061 272.2282  87.8526 14.98333574 77739,6950.182,96.107,574.174,569.919,0.0
55782.0,STARLINK-5826,PAYLOAD,2024-07-22 04:53:22,14.98332577,0.0002933,69.9999,266.0706,272.4667,87.6156,1.8867e-05,1.32e-06,0.0,0 STARLINK-5826,1 55782U 23028AT  24204.20373021  .00000132  00000-0  18867-4 0  9992,2 55782  69.9999 266.0706 0002933 272.4667  87.6156 14.98332577 77824,6950.185,96.107,574.088,570.011,0.0
55782.0,STARLINK-5826,PAYLOAD,2024-07-22 09:41:46,14.98331011,0.0002957,69.9998,265.5657,272.4708,87.6112,2.1022e-06,-6.8e-07,0.0,0 STARLINK-5826,1 55782U 23028AT  24204.40401124 -.00000068  00000-0  21022-5 0  9997,2 55782  69.9998 265.5657 0002957 272.4708  87.6112 14.98331011 77851,6950.19,96.107,574.11,570.0,0.0
55782.0,STARLINK-5826,PAYLOAD,2024-07-23 04:55:23,14.98328441,0.0002839,69.9999,263.5473,261.5606,98.5231,2.2855e-05,1.8e-06,0.0,0 STARLINK-5826,1 55782U 23028AT  24205.20513201  .00000180  00000-0  22855-4 0  9994,2 55782  69.9999 263.5473 0002839 261.5606  98.5231 14.98328441 77970,6950.198,96.107,574.036,570.09,0.0
55782.0,STARLINK-5826,PAYLOAD,2024-07-23 09:43:47,14.98327674,0.0002843,69.9999,263.0426,259.0497,101.0342,1.418e-05,7.6e-07,0.0,0 STARLINK-5826,1 55782U 23028AT  24205.40541275  .00000076  00000-0  14180-4 0  9994,2 55782  69.9999 263.0426 0002843 259.0497 101.0342 14.98327674 78003,6950.2,96.107,574.041,570.089,0.0
55782.0,STARLINK-5826,PAYLOAD,2024-07-24 04:57:24,14.98327673,0.0002747,70.0,261.0229,257.3803,102.7048,6.4106e-05,6.72e-06,0.0,0 STARLINK-5826,1 55782U 23028AT  24206.20653162  .00000672  00000-0  64106-4 0  9997,2 55782  70.0000 261.0229 0002747 257.3803 102.7048 14.98327673 78126,6950.2,96.107,573.974,570.156,0.0
55782.0,STARLINK-5826,PAYLOAD,2024-07-24 14:34:12,14.98329199,0.0002921,69.9994,260.0126,261.1062,98.9767,6.8424e-05,7.23e-06,0.0,0 STARLINK-5826,1 55782U 23028AT  24206.60709124  .00000723  00000-0  68424-4 0  9995,2 55782  69.9994 260.0126 0002921 261.1062  98.9767 14.98329199 78189,6950.195,96.107,574.091,570.03,0.0
55782.0,STARLINK-5826,PAYLOAD,2024-07-25 04:59:25,14.98332053,0.0003137,69.9987,258.4968,267.8213,92.2587,9.7449e-05,1.07e-05,0.0,0 STARLINK-5826,1 55782U 23028AT  24207.20792828  .00001070  00000-0  97449-4 0  9990,2 55782  69.9987 258.4968 0003137 267.8213  92.2587 14.98332053 78277,6950.187,96.107,574.232,569.871,0.0
55782.0,STARLINK-5826,PAYLOAD,2024-07-25 06:35:33,14.98332129,0.0003148,69.9987,258.3284,267.8466,92.2332,9.6941e-05,1.064e-05,0.0,0 STARLINK-5826,1 55782U 23028AT  24207.27468818  .00001064  00000-0  96941-4 0  9995,2 55782  69.9987 258.3284 0003148 267.8466  92.2332 14.98332129 78282,6950.186,96.107,574.239,569.863,0.0
55782.0,STARLINK-5826,PAYLOAD,2024-07-25 13:00:05,14.98333634,0.0003152,69.9988,257.6554,268.4376,91.6422,0.00010785,1.194e-05,0.0,0 STARLINK-5826,1 55782U 23028AT  24207.54172663  .00001194  00000-0  10785-3 0  9990,2 55782  69.9988 257.6554 0003152 268.4376  91.6422 14.98333634 78327,6950.182,96.107,574.237,569.856,0.0
55782.0,STARLINK-5826,PAYLOAD,2024-07-26 05:01:26,14.98330002,0.0003049,69.9989,255.9723,266.0795,94.0016,1.4137e-05,7.6e-07,0.0,0 STARLINK-5826,1 55782U 23028AT  24208.20933028  .00000076  00000-0  14137-4 0  9998,2 55782  69.9989 255.9723 0003049 266.0795  94.0016 14.98330002 78424,6950.193,96.107,574.177,569.939,0.0
55782.0,STARLINK-5826,PAYLOAD,2024-07-26 09:49:50,14.9830414,0.0002959,69.9986,255.4653,268.203,91.879,0.00039581,4.63e-05,0.0,0 STARLINK-5826,1 55782U 23028AT  24208.40961662  .00004630  00000-0  39581-3 0  9994,2 55782  69.9986 255.4653 0002959 268.2030  91.8790 14.98304140 78454,6950.273,96.109,574.194,570.081,0.0
55782.0,STARLINK-5826,PAYLOAD,2024-07-26 13:02:06,14.98331199,0.000314,69.9984,255.1291,270.0328,90.0471,2.3647e-05,1.89e-06,0.0,0 STARLINK-5826,1 55782U 23028AT  24208.54312901  .00000189  00000-0  23647-4 0  9997,2 55782  69.9984 255.1291 0003140 270.0328  90.0471 14.98331199 78474,6950.189,96.107,574.237,569.872,0.0
55782.0,STARLINK-5826,PAYLOAD,2024-07-26 21:02:46,14.98330002,0.000312,69.9985,254.2875,270.637,89.4432,-2.1412e-05,-3.49e-06,0.0,0 STARLINK-5826,1 55782U 23028AT  24208.87693080 -.00000349  00000-0 -21412-4 0  9991,2 55782  69.9985 254.2875 0003120 270.6370  89.4432 14.98330002 78521,6950.193,96.107,574.226,569.889,0.0
